NORAD_CAT_ID,OBJECT_NAME,OBJECT_TYPE,EPOCH,MEAN_MOTION,ECCENTRICITY,INCLINATION,RA_OF_ASC_NODE,ARG_OF_PERICENTER,MEAN_ANOMALY,BSTAR,MEAN_MOTION_DOT,MEAN_MOTION_DDOT,TLE_LINE0,TLE_LINE1,TLE_LINE2,SEMIMAJOR_AXIS,PERIOD,APOGEE,PERIGEE,DECAYED
49454.0,STARLINK-3160,PAYLOAD,2021-12-21 04:00:01,15.73246859,0.0002702,53.2187,306.7451,17.2306,85.8205,-0.00069075,-0.00096672,0.0,0 STARLINK-3160,1 49454U 21104AY  21355.16668981 -.00096672  00000-0 -69075-3 0  9997,2 49454  53.2187 306.7451 0002702  17.2306  85.8205 15.73246859  7207,6727.762,91.53,351.444,347.809,0.0
49454.0,STARLINK-3160,PAYLOAD,2021-12-21 14:00:01,15.73150023,0.0002639,53.2188,304.6823,20.3342,283.8221,6.6382e-05,8.685e-05,0.0,0 STARLINK-3160,1 49454U 21104AY  21355.58334491  .00008685  00000-0  66382-4 0  9993,2 49454  53.2188 304.6823 0002639  20.3342 283.8221 15.73150023  3674,6728.038000000001,91.536,351.67800000000005,348.12699999999984,0.0
49454.0,STARLINK-3160,PAYLOAD,2021-12-21 20:00:01,15.73147961,0.000254,53.2187,303.4446,22.814,257.9937,0.00055656,0.0007804999999999,0.0,0 STARLINK-3160,1 49454U 21104AY  21355.83334491  .00078050  00000-0  55656-3 0  9995,2 49454  53.2187 303.4446 0002540  22.8140 257.9937 15.73147961  7313,6728.044,91.536,351.617,348.2,0.0
49454.0,STARLINK-3160,PAYLOAD,2021-12-21 22:00:00,15.73183582,0.0002569,53.2187,303.0328,22.8716,10.1482,0.00017349,0.00023781,0.0,0 STARLINK-3160,1 49454U 21104AY  21355.91667824  .00023781  00000-0  17349-3 0  9991,2 49454  53.2187 303.0328 0002569  22.8716  10.1482 15.73183582  3698,6727.941999999999,91.534,351.535,348.079,0.0
49454.0,STARLINK-3160,PAYLOAD,2021-12-22 04:00:01,15.73211853,0.0002717,53.2183,301.7974,20.2502,349.5191,-0.00047493,-0.00066796,0.0,0 STARLINK-3160,1 49454U 21104AY  21356.16668981 -.00066796  00000-0 -47493-3 0  9992,2 49454  53.2183 301.7974 0002717  20.2502 349.5191 15.73211853  7363,6727.861,91.532,351.55400000000014,347.898,0.0
49454.0,STARLINK-3160,PAYLOAD,2021-12-22 12:00:00,15.73178675,0.0002613,53.2179,300.1474,18.5576,80.0542,9.2692e-05,0.00012396,0.0,0 STARLINK-3160,1 49454U 21104AY  21356.50001157  .00012396  00000-0  92692-4 0  9993,2 49454  53.2179 300.1474 0002613  18.5576  80.0542 15.73178675  7419,6727.956,91.534,351.579,348.06300000000016,0.0
49454.0,STARLINK-3160,PAYLOAD,2021-12-22 14:00:01,15.73177218,0.0002537,53.2181,299.7345,19.5075,191.3303,0.0002077,0.00028602,0.0,0 STARLINK-3160,1 49454U 21104AY  21356.58334491  .00028602  00000-0  20770-3 0  9995,2 49454  53.2181 299.7345 0002537  19.5075 191.3303 15.73177218  3680,6727.96,91.535,351.532,348.11800000000005,0.0
49454.0,STARLINK-3160,PAYLOAD,2021-12-22 22:00:00,15.732402800000004,0.0002495,53.2183,298.085,24.625,275.1183,-0.00045263,-0.00063786,0.0,0 STARLINK-3160,1 49454U 21104AY  21356.91667824 -.00063786  00000-0 -45263-3 0  9999,2 49454  53.2183 298.0850 0002495  24.6250 275.1183 15.73240280  3676,6727.78,91.531,351.324,347.967,0.0
49454.0,STARLINK-3160,PAYLOAD,2021-12-23 14:00:01,15.73184411,0.0002509,53.2182,294.7864,21.7375,95.8948,4.5855e-05,5.814e-05,0.0,0 STARLINK-3160,1 49454U 21104AY  21357.58334491  .00005814  00000-0  45855-4 0  9998,2 49454  53.2182 294.7864 0002509  21.7375  95.8948 15.73184411  3685,6727.94,91.534,351.49300000000005,348.117,0.0
49454.0,STARLINK-3160,PAYLOAD,2021-12-23 20:00:01,15.73179866,0.0002455,53.2181,293.5490000000001,24.0716,70.2332,0.0004499,0.00062945,0.0,0 STARLINK-3160,1 49454U 21104AY  21357.83334491  .00062945  00000-0  44990-3 0  9992,2 49454  53.2181 293.5490 0002455  24.0716  70.2332 15.73179866  7621,6727.953,91.534,351.469,348.166,0.0
49454.0,STARLINK-3160,PAYLOAD,2021-12-23 22:00:00,15.73210381,0.0002447,53.218,293.1373,22.9212,183.606,9.9297e-05,0.00013344,0.0,0 STARLINK-3160,1 49454U 21104AY  21357.91667824  .00013344  00000-0  99297-4 0  9990,2 49454  53.2180 293.1373 0002447  22.9212 183.6060 15.73210381  3693,6727.866,91.533,351.37699999999984,348.084,0.0
49454.0,STARLINK-3160,PAYLOAD,2021-12-24 04:00:00,15.73224757,0.0002636,53.2176,291.9017,19.2845,163.9495,-0.00047989,-0.00067517,0.0,0 STARLINK-3160,1 49454U 21104AY  21358.16667824 -.00067517  00000-0 -47989-3 0  9991,2 49454  53.2176 291.9017 0002636  19.2845 163.9495 15.73224757  7688,6727.825,91.532,351.463,347.916,0.0
49454.0,STARLINK-3160,PAYLOAD,2021-12-24 14:00:01,15.7322406,0.000237,53.2172,289.8322,22.1912,2.207,-0.0022677,-0.00307898,0.0,0 STARLINK-3160,1 49454U 21104AY  21358.58334491 -.00307898  00000-0 -22677-2 0  9993,2 49454  53.2172 289.8322 0002370  22.1912   2.2070 15.73224060  3667,6727.8269999999975,91.532,351.286,348.097,0.0
49454.0,STARLINK-3160,PAYLOAD,2021-12-24 22:00:00,15.73166042,0.0002597,53.2173,288.1790000000001,27.7718,85.3921,0.00046223,0.00064663,0.0,0 STARLINK-3160,1 49454U 21104AY  21358.91667824  .00064663  00000-0  46223-3 0  9991,2 49454  53.2173 288.1790 0002597  27.7718  85.3921 15.73166042  3689,6727.9919999999975,91.535,351.60400000000016,348.11,0.0
49454.0,STARLINK-3160,PAYLOAD,2021-12-25 12:00:00,15.73263759,0.0002457,53.2173,285.3026,17.9349,161.0643,-0.00062996,-0.00088365,0.0,0 STARLINK-3160,1 49454U 21104AY  21359.50001157 -.00088365  00000-0 -62996-3 0  9990,2 49454  53.2173 285.3026 0002457  17.9349 161.0643 15.73263759  7899,6727.7130000000025,91.529,351.231,347.925,0.0
49454.0,STARLINK-3160,PAYLOAD,2021-12-25 14:00:01,15.73232867,0.0002397,53.2173,284.8898,19.5802,271.6714,-0.00029874,-0.00042402,0.0,0 STARLINK-3160,1 49454U 21104AY  21359.58334491 -.00042402  00000-0 -29874-3 0  9998,2 49454  53.2173 284.8898 0002397  19.5802 271.6714 15.73232867  3692,6727.801,91.531,351.279,348.05400000000014,0.0
49454.0,STARLINK-3160,PAYLOAD,2021-12-25 22:00:00,15.73205788,0.0002488,53.2171,283.2407,23.6523,356.5236,3.9987e-05,4.995e-05,0.0,0 STARLINK-3160,1 49454U 21104AY  21359.91667824  .00004995  00000-0  39987-4 0  9994,2 49454  53.2171 283.2407 0002488  23.6523 356.5236 15.73205788  3690,6727.879,91.533,351.418,348.07,0.0
49454.0,STARLINK-3160,PAYLOAD,2021-12-26 04:00:00,15.73228447,0.0002625,53.2168,282.005,21.7064,335.1801,-0.00020159,-0.00028857,0.0,0 STARLINK-3160,1 49454U 21104AY  21360.16667824 -.00028857  00000-0 -20159-3 0  9998,2 49454  53.2168 282.0050 0002625  21.7064 335.1801 15.73228447  7994,6727.814,91.532,351.445,347.913,0.0
49454.0,STARLINK-3160,PAYLOAD,2021-12-26 14:00:01,15.73176053,0.000233,53.2164,279.9411,20.5274,177.5456,0.0003953,0.00055169,0.0,0 STARLINK-3160,1 49454U 21104AY  21360.58334491  .00055169  00000-0  39530-3 0  9992,2 49454  53.2164 279.9411 0002330  20.5274 177.5456 15.73176053  3668,6727.9630000000025,91.535,351.396,348.261,0.0
49454.0,STARLINK-3160,PAYLOAD,2021-12-26 22:00:00,15.73231596,0.000241,53.2166,278.2922,24.7297,262.2647,-0.00052168,-0.00073311,0.0,0 STARLINK-3160,1 49454U 21104AY  21360.91667824 -.00073311  00000-0 -52168-3 0  9991,2 49454  53.2166 278.2922 0002410  24.7297 262.2647 15.73231596  3690,6727.805,91.531,351.291,348.0490000000001,0.0
49454.0,STARLINK-3160,PAYLOAD,2021-12-27 04:00:00,15.73187267,0.0002598,53.2168,277.0566,23.3097,240.393,-0.00025283,-0.0003594,0.0,0 STARLINK-3160,1 49454U 21104AY  21361.16667824 -.00035940  00000-0 -25283-3 0  9993,2 49454  53.2168 277.0566 0002598  23.3097 240.3930 15.73187267  8156,6727.931,91.534,351.5440000000001,348.0490000000001,0.0
49454.0,STARLINK-3160,PAYLOAD,2021-12-27 14:00:01,15.73134979,0.0002322,53.2168,274.9926,21.5532,83.2729,0.00057688,0.00080903,0.0,0 STARLINK-3160,1 49454U 21104AY  21361.58334491  .00080903  00000-0  57688-3 0  9991,2 49454  53.2168 274.9926 0002322  21.5532  83.2729 15.73134979  3697,6728.081,91.537,351.5080000000001,348.3830000000001,0.0
49454.0,STARLINK-3160,PAYLOAD,2021-12-27 20:00:01,15.73183762,0.0002378,53.2168,273.7557,24.8589,56.6046,0.00015001,0.0002047,0.0,0 STARLINK-3160,1 49454U 21104AY  21361.83334491  .00020470  00000-0  15001-3 0  9995,2 49454  53.2168 273.7557 0002378  24.8589  56.6046 15.73183762  8250,6727.941,91.534,351.406,348.207,0.0
49454.0,STARLINK-3160,PAYLOAD,2021-12-27 22:00:00,15.73192505,0.000245,53.2167,273.344,24.0994,169.5904,5.472e-05,7.063e-05,0.0,0 STARLINK-3160,1 49454U 21104AY  21361.91667824  .00007063  00000-0  54720-4 0  9998,2 49454  53.2167 273.3440 0002450  24.0994 169.5904 15.73192505  3683,6727.917,91.534,351.43,348.1330000000001,0.0
49454.0,STARLINK-3160,PAYLOAD,2021-12-28 04:00:00,15.73185772,0.0002606,53.2165,272.1081,22.9473,147.4526,0.00064221,0.00090438,0.0,0 STARLINK-3160,1 49454U 21104AY  21362.16667824  .00090438  00000-0  64221-3 0  9990,2 49454  53.2165 272.1081 0002606  22.9473 147.4526 15.73185772  8319,6727.936,91.534,351.55400000000014,348.047,0.0
49454.0,STARLINK-3160,PAYLOAD,2021-12-28 12:00:00,15.73260276,0.0002323,53.2163,270.4568,23.0981,236.241,-0.00021968,-0.00031421,0.0,0 STARLINK-3160,1 49454U 21104AY  21362.50001157 -.00031421  00000-0 -21968-3 0  9999,2 49454  53.2163 270.4568 0002323  23.0981 236.2410 15.73260276  8367,6727.723000000001,91.53,351.151,348.025,0.0
49454.0,STARLINK-3160,PAYLOAD,2021-12-28 14:00:01,15.73251068,0.0002239,53.2161,270.0439,22.5179,349.0728,-0.00016715,-0.00024067,0.0,0 STARLINK-3160,1 49454U 21104AY  21362.58334491 -.00024067  00000-0 -16715-3 0  9999,2 49454  53.2161 270.0439 0002239  22.5179 349.0728 15.73251068  3715,6727.75,91.53,351.121,348.108,0.0
49454.0,STARLINK-3160,PAYLOAD,2021-12-28 22:00:00,15.732648499999998,0.0002265,53.2164,268.3953,18.9511,81.6257,-0.00066917,-0.00093767,0.0,0 STARLINK-3160,1 49454U 21104AY  21362.91667824 -.00093767  00000-0 -66917-3 0  9997,2 49454  53.2164 268.3953 0002265  18.9511  81.6257 15.73264850  3682,6727.71,91.529,351.099,348.051,0.0
49454.0,STARLINK-3160,PAYLOAD,2021-12-29 12:00:00,15.73211445,0.0002429,53.2175,265.4966,23.6249,142.364,-6.056100000000001e-05,-9.117e-05,0.0,0 STARLINK-3160,1 49454U 21104AY  21363.50001157 -.00009117  00000-0 -60561-4 0  9990,2 49454  53.2175 265.4966 0002429  23.6249 142.3640 15.73211445  8520,6727.863,91.533,351.362,348.093,0.0
